[{"OBJECT_NAME":"WNISAT-1","OBJECT_ID":"2013-066H","EPOCH":"2026-03-02T10:10:50.079936","MEAN_MOTION":14.57838517,"ECCENTRICITY":0.01630867,"INCLINATION":97.7028,"RA_OF_ASC_NODE":218.2635,"ARG_OF_PERICENTER":207.7964,"MEAN_ANOMALY":151.4451,"EPHEMERIS_TYPE":0,"CLASSIFICATION_TYPE":"U","NORAD_CAT_ID":39423,"ELEMENT_SET_NO":999,"REV_AT_EPOCH":65117,"BSTAR":0.00038994925,"MEAN_MOTION_DOT":2.095e-5,"MEAN_MOTION_DDOT":0},{"OBJECT_NAME":"TRITON-1","OBJECT_ID":"2013-066M","EPOCH":"2026-03-02T20:21:07.011648","MEAN_MOTION":14.81153337,"ECCENTRICITY":0.0089669,"INCLINATION":97.8305,"RA_OF_ASC_NODE":334.0956,"ARG_OF_PERICENTER":220.1964,"MEAN_ANOMALY":139.2595,"EPHEMERIS_TYPE":0,"CLASSIFICATION_TYPE":"U","NORAD_CAT_ID":39427,"ELEMENT_SET_NO":999,"REV_AT_EPOCH":65834,"BSTAR":0.00057405,"MEAN_MOTION_DOT":4.727e-5,"MEAN_MOTION_DDOT":0},{"OBJECT_NAME":"GOMX-1","OBJECT_ID":"2013-066Q","EPOCH":"2026-03-02T19:25:38.264160","MEAN_MOTION":14.69065451,"ECCENTRICITY":0.0130659,"INCLINATION":97.6574,"RA_OF_ASC_NODE":268.9434,"ARG_OF_PERICENTER":59.4061,"MEAN_ANOMALY":301.9958,"EPHEMERIS_TYPE":0,"CLASSIFICATION_TYPE":"U","NORAD_CAT_ID":39430,"ELEMENT_SET_NO":999,"REV_AT_EPOCH":65429,"BSTAR":0.00034024,"MEAN_MOTION_DOT":2.226e-5,"MEAN_MOTION_DDOT":0},{"OBJECT_NAME":"CUBEBUG-2 (LO-74)","OBJECT_ID":"2013-066AA","EPOCH":"2026-03-02T20:40:03.777312","MEAN_MOTION":14.9284801,"ECCENTRICITY":0.0059455,"INCLINATION":97.8806,"RA_OF_ASC_NODE":10.5236,"ARG_OF_PERICENTER":21.5397,"MEAN_ANOMALY":338.8304,"EPHEMERIS_TYPE":0,"CLASSIFICATION_TYPE":"U","NORAD_CAT_ID":39440,"ELEMENT_SET_NO":999,"REV_AT_EPOCH":66112,"BSTAR":0.00072433,"MEAN_MOTION_DOT":7.706e-5,"MEAN_MOTION_DDOT":0},{"OBJECT_NAME":"NEE-02 KRYSAOR","OBJECT_ID":"2013-066AB","EPOCH":"2026-03-02T18:42:50.937408","MEAN_MOTION":14.86105057,"ECCENTRICITY":0.0068261,"INCLINATION":97.8811,"RA_OF_ASC_NODE":1.8428,"ARG_OF_PERICENTER":59.2659,"MEAN_ANOMALY":301.5256,"EPHEMERIS_TYPE":0,"CLASSIFICATION_TYPE":"U","NORAD_CAT_ID":39441,"ELEMENT_SET_NO":999,"REV_AT_EPOCH":66039,"BSTAR":0.00044844,"MEAN_MOTION_DOT":4.041e-5,"MEAN_MOTION_DDOT":0},{"OBJECT_NAME":"FUNCUBE-1 (AO-73)","OBJECT_ID":"2013-066AE","EPOCH":"2026-03-02T19:20:16.195200","MEAN_MOTION":15.07748353,"ECCENTRICITY":0.0036526,"INCLINATION":97.8166,"RA_OF_ASC_NODE":31.2276,"ARG_OF_PERICENTER":203.0732,"MEAN_ANOMALY":156.8857,"EPHEMERIS_TYPE":0,"CLASSIFICATION_TYPE":"U","NORAD_CAT_ID":39444,"ELEMENT_SET_NO":999,"REV_AT_EPOCH":66362,"BSTAR":0.00068338,"MEAN_MOTION_DOT":0.00010543,"MEAN_MOTION_DDOT":0},{"OBJECT_NAME":"UWE-3","OBJECT_ID":"2013-066AG","EPOCH":"2026-03-02T18:34:49.392192","MEAN_MOTION":14.96081032,"ECCENTRICITY":0.0048822,"INCLINATION":97.8592,"RA_OF_ASC_NODE":17.2799,"ARG_OF_PERICENTER":316.3479,"MEAN_ANOMALY":43.3885,"EPHEMERIS_TYPE":0,"CLASSIFICATION_TYPE":"U","NORAD_CAT_ID":39446,"ELEMENT_SET_NO":999,"REV_AT_EPOCH":66166,"BSTAR":0.00057209,"MEAN_MOTION_DOT":6.526e-5,"MEAN_MOTION_DDOT":0},{"OBJECT_NAME":"BRITE-CA1 (TORONTO)","OBJECT_ID":"2014-033L","EPOCH":"2026-03-02T15:06:41.332320","MEAN_MOTION":14.72438086,"ECCENTRICITY":0.0077668,"INCLINATION":97.9555,"RA_OF_ASC_NODE":192.6439,"ARG_OF_PERICENTER":257.8312,"MEAN_ANOMALY":101.4187,"EPHEMERIS_TYPE":0,"CLASSIFICATION_TYPE":"U","NORAD_CAT_ID":40020,"ELEMENT_SET_NO":999,"REV_AT_EPOCH":62653,"BSTAR":0.00024305,"MEAN_MOTION_DOT":1.561e-5,"MEAN_MOTION_DDOT":0},{"OBJECT_NAME":"DUCHIFAT-1","OBJECT_ID":"2014-033M","EPOCH":"2026-03-02T15:50:17.188224","MEAN_MOTION":15.48814794,"ECCENTRICITY":0.000673,"INCLINATION":98.0649,"RA_OF_ASC_NODE":107.2642,"ARG_OF_PERICENTER":103.7113,"MEAN_ANOMALY":256.4886,"EPHEMERIS_TYPE":0,"CLASSIFICATION_TYPE":"U","NORAD_CAT_ID":40021,"ELEMENT_SET_NO":999,"REV_AT_EPOCH":63918,"BSTAR":0.0011308,"MEAN_MOTION_DOT":0.00061132,"MEAN_MOTION_DDOT":0},{"OBJECT_NAME":"NANOSATC-BR1","OBJECT_ID":"2014-033Q","EPOCH":"2026-03-02T13:58:50.907360","MEAN_MOTION":15.27792619,"ECCENTRICITY":0.0003862,"INCLINATION":98.084,"RA_OF_ASC_NODE":84.7555,"ARG_OF_PERICENTER":167.3051,"MEAN_ANOMALY":192.8284,"EPHEMERIS_TYPE":0,"CLASSIFICATION_TYPE":"U","NORAD_CAT_ID":40024,"ELEMENT_SET_NO":999,"REV_AT_EPOCH":63768,"BSTAR":0.00074502,"MEAN_MOTION_DOT":0.00020178,"MEAN_MOTION_DDOT":0},{"OBJECT_NAME":"QB50P1","OBJECT_ID":"2014-033R","EPOCH":"2026-03-02T14:00:17.712576","MEAN_MOTION":15.16330216,"ECCENTRICITY":0.0007539,"INCLINATION":98.0998,"RA_OF_ASC_NODE":65.3871,"ARG_OF_PERICENTER":221.331,"MEAN_ANOMALY":138.7351,"EPHEMERIS_TYPE":0,"CLASSIFICATION_TYPE":"U","NORAD_CAT_ID":40025,"ELEMENT_SET_NO":999,"REV_AT_EPOCH":63686,"BSTAR":0.00056154,"MEAN_MOTION_DOT":0.00010827,"MEAN_MOTION_DDOT":0},{"OBJECT_NAME":"QB50P2","OBJECT_ID":"2014-033Y","EPOCH":"2026-03-02T12:33:51.848064","MEAN_MOTION":15.13500197,"ECCENTRICITY":0.00077418,"INCLINATION":98.0716,"RA_OF_ASC_NODE":51.9121,"ARG_OF_PERICENTER":164.7893,"MEAN_ANOMALY":195.3571,"EPHEMERIS_TYPE":0,"CLASSIFICATION_TYPE":"U","NORAD_CAT_ID":40032,"ELEMENT_SET_NO":999,"REV_AT_EPOCH":63652,"BSTAR":0.00063327424,"MEAN_MOTION_DOT":0.00011281,"MEAN_MOTION_DDOT":0},{"OBJECT_NAME":"PERSEUS-M2","OBJECT_ID":"2014-033AD","EPOCH":"2026-03-02T19:12:57.563136","MEAN_MOTION":14.95118804,"ECCENTRICITY":0.0010373,"INCLINATION":97.9853,"RA_OF_ASC_NODE":10.2773,"ARG_OF_PERICENTER":296.8805,"MEAN_ANOMALY":63.1354,"EPHEMERIS_TYPE":0,"CLASSIFICATION_TYPE":"U","NORAD_CAT_ID":40037,"ELEMENT_SET_NO":999,"REV_AT_EPOCH":63488,"BSTAR":0.00037782,"MEAN_MOTION_DOT":4.087e-5,"MEAN_MOTION_DDOT":0},{"OBJECT_NAME":"PERSEUS-M1","OBJECT_ID":"2014-033AF","EPOCH":"2026-03-02T18:44:59.072064","MEAN_MOTION":14.95207636,"ECCENTRICITY":0.001007,"INCLINATION":97.9548,"RA_OF_ASC_NODE":4.2636,"ARG_OF_PERICENTER":294.5474,"MEAN_ANOMALY":65.4696,"EPHEMERIS_TYPE":0,"CLASSIFICATION_TYPE":"U","NORAD_CAT_ID":40039,"ELEMENT_SET_NO":999,"REV_AT_EPOCH":63473,"BSTAR":0.00032126,"MEAN_MOTION_DOT":3.474e-5,"MEAN_MOTION_DDOT":0},{"OBJECT_NAME":"POLYITAN-1","OBJECT_ID":"2014-033AJ","EPOCH":"2026-03-02T14:35:39.198912","MEAN_MOTION":15.29176168,"ECCENTRICITY":0.0008822,"INCLINATION":98.1046,"RA_OF_ASC_NODE":78.0599,"ARG_OF_PERICENTER":148.131,"MEAN_ANOMALY":212.0463,"EPHEMERIS_TYPE":0,"CLASSIFICATION_TYPE":"U","NORAD_CAT_ID":40042,"ELEMENT_SET_NO":999,"REV_AT_EPOCH":63728,"BSTAR":0.00080478,"MEAN_MOTION_DOT":0.00022773,"MEAN_MOTION_DDOT":0},{"OBJECT_NAME":"TIGRISAT","OBJECT_ID":"2014-033AK","EPOCH":"2026-03-02T15:33:35.641152","MEAN_MOTION":14.84681965,"ECCENTRICITY":0.0050753,"INCLINATION":97.7655,"RA_OF_ASC_NODE":214.2268,"ARG_OF_PERICENTER":65.0259,"MEAN_ANOMALY":295.6215,"EPHEMERIS_TYPE":0,"CLASSIFICATION_TYPE":"U","NORAD_CAT_ID":40043,"ELEMENT_SET_NO":999,"REV_AT_EPOCH":62981,"BSTAR":0.00036831,"MEAN_MOTION_DOT":3.135e-5,"MEAN_MOTION_DDOT":0},{"OBJECT_NAME":"AEROCUBE 6A","OBJECT_ID":"2014-033AM","EPOCH":"2026-03-02T10:38:37.895424","MEAN_MOTION":14.96715553,"ECCENTRICITY":0.00394774,"INCLINATION":97.7108,"RA_OF_ASC_NODE":229.6858,"ARG_OF_PERICENTER":13.9744,"MEAN_ANOMALY":346.256,"EPHEMERIS_TYPE":0,"CLASSIFICATION_TYPE":"U","NORAD_CAT_ID":40045,"ELEMENT_SET_NO":999,"REV_AT_EPOCH":63064,"BSTAR":0.00066562828,"MEAN_MOTION_DOT":7.669e-5,"MEAN_MOTION_DDOT":0}]
