WNISAT-1                
1 39423U 13066H   26061.42419074  .00002095  00000+0  38995-3 0  9995
2 39423  97.7028 218.2635 0163086 207.7964 151.4451 14.57838517651172
TRITON-1                
1 39427U 13066M   26061.84799782  .00004727  00000+0  57405-3 0  9993
2 39427  97.8305 334.0956 0089669 220.1964 139.2595 14.81153337658347
GOMX-1                  
1 39430U 13066Q   26061.80947065  .00002226  00000+0  34024-3 0  9996
2 39430  97.6574 268.9434 0130659  59.4061 301.9958 14.69065451654296
CUBEBUG-2 (LO-74)       
1 39440U 13066AA  26061.86115483  .00007706  00000+0  72433-3 0  9998
2 39440  97.8806  10.5236 0059455  21.5397 338.8304 14.92848010661124
NEE-02 KRYSAOR          
1 39441U 13066AB  26061.77975622  .00004041  00000+0  44844-3 0  9992
2 39441  97.8811   1.8428 0068261  59.2659 301.5256 14.86105057660392
FUNCUBE-1 (AO-73)       
1 39444U 13066AE  26061.80574300  .00010543  00000+0  68338-3 0  9995
2 39444  97.8166  31.2276 0036526 203.0732 156.8857 15.07748353663629
UWE-3                   
1 39446U 13066AG  26061.77418278  .00006526  00000+0  57209-3 0  9995
2 39446  97.8592  17.2799 0048822 316.3479  43.3885 14.96081032661660
BRITE-CA1 (TORONTO)     
1 40020U 14033L   26061.62964505  .00001561  00000+0  24305-3 0  9998
2 40020  97.9555 192.6439 0077668 257.8312 101.4187 14.72438086626531
DUCHIFAT-1              
1 40021U 14033M   26061.65992116  .00061132  00000+0  11308-2 0  9999
2 40021  98.0649 107.2642 0006730 103.7113 256.4886 15.48814794639186
NANOSATC-BR1            
1 40024U 14033Q   26061.58253365  .00020178  00000+0  74502-3 0  9991
2 40024  98.0840  84.7555 0003862 167.3051 192.8284 15.27792619637680
QB50P1                  
1 40025U 14033R   26061.58353834  .00010827  00000+0  56154-3 0  9997
2 40025  98.0998  65.3871 0007539 221.3310 138.7351 15.16330216636867
QB50P2                  
1 40032U 14033Y   26061.52351676  .00011281  00000+0  63327-3 0  9996
2 40032  98.0716  51.9121 0007741 164.7893 195.3571 15.13500197636523
PERSEUS-M2              
1 40037U 14033AD  26061.80066624  .00004087  00000+0  37782-3 0  9990
2 40037  97.9853  10.2773 0010373 296.8805  63.1354 14.95118804634881
PERSEUS-M1              
1 40039U 14033AF  26061.78123926  .00003474  00000+0  32126-3 0  9994
2 40039  97.9548   4.2636 0010070 294.5474  65.4696 14.95207636634736
POLYITAN-1              
1 40042U 14033AJ  26061.60809258  .00022773  00000+0  80478-3 0  9994
2 40042  98.1046  78.0599 0008822 148.1310 212.0463 15.29176168637286
TIGRISAT                
1 40043U 14033AK  26061.64832918  .00003135  00000+0  36831-3 0  9993
2 40043  97.7655 214.2268 0050753  65.0259 295.6215 14.84681965629812
AEROCUBE 6A             
1 40045U 14033AM  26061.44349416  .00007669  00000+0  66563-3 0  9990
2 40045  97.7108 229.6858 0039477  13.9744 346.2560 14.96715553630646
